satname,norad_id,inclination_deg,eccentricity,mean_motion_rev_per_day,perigee_km,apogee_km,l1,l2
STARLINK-1008,44714,53.0544,0.000133,15.06397302,546.2987544740536,548.1408993900177,1 44714U 19074B   25277.72338325  .00005490  00000+0  38719-3 0  9995,2 44714  53.0544 166.7799 0001330  91.2378 268.8764 15.06397302325248
STARLINK-1010,44716,53.0473,0.0005223,15.83770902,316.28948955833675,323.28614182080673,1 44716U 19074D   25277.91667823  .00257219  00000+0  11072-2 0  9996,2 44716  53.0473 107.4442 0005223 100.4380 256.6463 15.83770902  6051
STARLINK-1011,44717,53.0488,0.0006741,15.73625677,344.01036689454486,353.0792793284627,1 44717U 19074E   25277.91667823  .00135234  00000+0  93418-3 0  9994,2 44717  53.0488 162.2978 0006741 114.1921 257.9851 15.73625677  5961
STARLINK-1012,44718,53.0509,0.0002349,15.06409922,545.5543913711108,548.8079058373241,1 44718U 19074F   25277.70126522  .00007855  00000+0  54553-3 0  9992,2 44718  53.0509 166.8790 0002349  88.0703 272.0555 15.06409922325238
STARLINK-1015,44721,53.0278,0.000401,16.40724911,161.25150620187287,166.49819970794306,1 44721U 19074J   25276.90238862  .09727808  12381-4  64790-3 0  9998,2 44721  53.0278  97.1892 0004010 268.5585  91.5002 16.40724911326132
STARLINK-1017,44723,53.0519,0.0004522,15.12279891,526.1254337715982,532.3724736281238,1 44723U 19074L   25276.41554670  .00046530  00000+0  26576-2 0  9990,2 44723  53.0519 170.6499 0004522  83.6134 276.5373 15.12279891325074
STARLINK-1019,44724,53.0537,0.0002055,15.0638478,545.8350367242329,548.6813741536689,1 44724U 19074M   25276.10525397  .00011164  00000+0  76752-3 0  9998,2 44724  53.0537 174.0455 0002055  59.7337 300.3855 15.06384780324991
STARLINK-1020,44725,53.054,0.000135,15.06397822,546.2833102461491,548.1531561591137,1 44725U 19074N   25277.76944566 -.00002140  00000+0 -12483-3 0  9992,2 44725  53.0540 186.5731 0001350  75.6689 284.4450 15.06397822324966
STARLINK-1021,44726,53.0364,0.0005455,16.09671578,244.1299742734036,251.35881087270172,1 44726U 19074P   25277.66559755  .00889303  45545-3  94345-3 0  9990,2 44726  53.0364 100.1839 0005455 302.9232  57.1276 16.09671578326164
STARLINK-1029,44734,53.0495,0.0003242,16.00498343,270.8813928562495,275.19401453412684,1 44734U 19074X   25277.91667823  .00617295  18204-3  11485-2 0  9997,2 44734  53.0495  23.5156 0003242 355.1082 238.5985 16.00498343  6012
STARLINK-1031,44736,53.0529,0.0009239,15.4067234,437.8207138531425,450.4268873605042,1 44736U 19074Z   25275.92539925  .00087365  00000+0  20925-2 0  9998,2 44736  53.0529 171.7619 0009239  86.8085 273.3976 15.40672340325021
STARLINK-1036,44741,53.0524,0.0001277,15.06407178,546.3051942879356,548.0739226909736,1 44741U 19074AE  25277.46720683  .00009866  00000+0  68017-3 0  9993,2 44741  53.0524 187.9318 0001277  83.8998 276.2137 15.06407178324927
STARLINK-1039,44744,53.0529,0.0006772,15.10890963,528.8009601187614,538.1620562262306,1 44744U 19074AH  25277.82749811  .00045768  00000+0  27164-2 0  9998,2 44744  53.0529 205.2734 0006772  62.0854 298.0822 15.10890963324719
STARLINK-1042,44747,53.0463,0.000336,15.41716323,438.7523834031399,443.33487278521807,1 44747U 19074AL  25277.82982816  .00026548  00000+0  62645-3 0  9994,2 44747  53.0463 117.9769 0003360  68.8929 291.2434 15.41716323325966
STARLINK-1043,44748,53.0537,0.0001252,15.06404606,546.3303893755883,548.0644931196775,1 44748U 19074AM  25277.83763804 -.00001060  00000+0 -52292-4 0  9992,2 44748  53.0537 206.2680 0001252  90.4499 269.6634 15.06404606324705
STARLINK-1046,44751,53.0523,0.0001346,15.0641389,546.2368412300048,548.1011336018173,1 44751U 19074AQ  25277.52064186  .00008590  00000+0  59467-3 0  9992,2 44751  53.0523 207.6908 0001346  84.8262 275.2880 15.06413890324656
STARLINK-1047,44752,53.0712,0.0005549,15.28448834,476.6428977224987,484.2545561622592,1 44752U 19074AR  25275.93001371  .00015732  00000+0  57178-3 0  9996,2 44752  53.0712 160.7107 0005549  88.1829 271.9806 15.28448834325182
STARLINK-1048,44753,53.0529,0.0001454,15.06400231,546.2039043792556,548.2177955340239,1 44753U 19074AS  25276.15317507  .00029173  00000+0  19693-2 0  9996,2 44753  53.0529 173.8281 0001454  74.7095 285.4055 15.06400231325006
STARLINK-1053,44758,53.0412,0.0002064,15.57052506,394.79458109996085,397.59102444254404,1 44758U 19074AX  25277.86725909  .00059552  00000+0  80928-3 0  9993,2 44758  53.0412 134.3786 0002064 128.8699 231.2496 15.57052506325724
STARLINK-1054,44759,53.042,0.0008738,15.73014425,344.40801112535337,356.16660544651404,1 44759U 19074AY  25277.91667823  .00196476  00000+0  13800-2 0  9991,2 44759  53.0420 162.4874 0008738  85.7772 192.2587 15.73014425  6023
STARLINK-1056,44761,53.0403,0.0007523,15.85165957,310.82159085470084,320.8933749536791,1 44761U 19074BA  25277.91667823  .00266331  00000+0  10703-2 0  9991,2 44761  53.0403 150.7023 0007523  97.5203 291.4897 15.85165957  6053
STARLINK-1057,44762,53.0286,0.0004696,16.44390718,151.08102575384692,157.2161483772179,1 44762U 19074BB  25277.00347522  .11099493  12468-4  37869-3 0  9997,2 44762  53.0286 123.2321 0004696 258.2987 101.7535 16.44390718325789
STARLINK-1060,44765,53.0545,0.0001252,15.50634748,414.02115253315606,415.7221218959148,1 44765U 19074BE  25277.91667823  .00374326  00000+0  61275-2 0  9999,2 44765  53.0545 180.3205 0001252  84.3670  15.7956 15.50634748  5761
STARLINK-1063,44768,53.0536,0.0001555,15.0638952,546.1667811196949,548.3205745104951,1 44768U 19074BH  25277.84132641 -.00003148  00000+0 -19259-3 0  9998,2 44768  53.0536 206.2499 0001555  88.3027 271.8140 15.06389520324718
STARLINK-1067,44771,53.054,0.0002996,15.06409496,545.1076285103545,549.2572799273212,1 44771U 19074BL  25277.83027411  .00006691  00000+0  46753-3 0  9992,2 44771  53.0540 206.3004 0002996  79.1688 280.9638 15.06409496324708
STARLINK-1068,44772,53.0535,0.0004322,15.06422837,544.1484613100993,550.1346721031605,1 44772U 19074BM  25277.75471046  .00023394  00000+0  15830-2 0  9991,2 44772  53.0535 186.6398 0004322  82.4288 277.7191 15.06422837324967
STARLINK-1112,44925,53.0515,1.65e-05,15.48288198,421.62125863135043,421.84565435641525,1 44925U 20001M   25276.66670139  .00080494  00000+0  14927-2 0  9996,2 44925  53.0515 298.2519 0000165 142.1809  20.5047 15.48288198  5779
STARLINK-1114,44927,53.0542,0.0001537,15.06384608,546.1942992790046,548.3231659272078,1 44927U 20001P   25277.52802802  .00010274  00000+0  70788-3 0  9995,2 44927  53.0542 327.6594 0001537  80.8606 279.2557 15.06384608316319
STARLINK-1123,44930,53.0553,0.0001697,15.06387063,546.0759698848296,548.4264466427148,1 44930U 20001S   25276.48122683  .00000920  00000+0  80689-4 0  9994,2 44930  53.0553 332.3571 0001697  75.7782 284.3395 15.06387063316155
STARLINK-1144,44933,53.0452,0.0012903,15.53549274,397.61893886557755,415.1270453512125,1 44933U 20001V   25277.91667823  .00169636  00000+0  25643-2 0  9993,2 44933  53.0452 270.2769 0012903 355.2857 180.6138 15.53549274  5970
STARLINK-1091,44940,53.0381,0.0002991,15.83049235,319.81929821892845,323.82721444426625,1 44940U 20001AC  25277.91667823  .00335122  00000+0  14788-2 0  9994,2 44940  53.0381 253.1337 0002991  62.9778 241.1043 15.83049235  6042
STARLINK-1094,44941,53.0554,0.0001338,15.06426873,546.2025966708761,548.0557979052692,1 44941U 20001AD  25277.48932036  .00010986  00000+0  75474-3 0  9996,2 44941  53.0554 307.8308 0001338 108.2133 251.9002 15.06426873316582
STARLINK-1096,44942,52.99,0.0002469,15.79959473,328.89897810684306,332.21173039137284,1 44942U 20001AE  25277.91667823  .00155779  00000+0  81165-3 0  9998,2 44942  52.9900  79.8521 0002469 282.6311 199.9334 15.79959473  5941
STARLINK-1122,44949,53.055,0.0001683,15.06397839,546.0526438229745,548.3837183769319,1 44949U 20001AM  25277.77683058  .00001196  00000+0  99186-4 0  9993,2 44949  53.0550 306.5350 0001683  78.9489 281.1689 15.06397839316629
STARLINK-1080,44961,53.0534,0.0001575,15.06411382,546.0859370635817,548.2674108708825,1 44961U 20001AZ  25277.44323825  .00004372  00000+0  31216-3 0  9992,2 44961  53.0534 288.0379 0001575  87.6066 272.5103 15.06411382316869
STARLINK-1090,44968,53.0537,0.0001485,15.0640655,546.1630719246332,548.2198944841457,1 44968U 20001BG  25277.44692733  .00003779  00000+0  27242-3 0  9990,2 44968  53.0537 288.0222 0001485  95.7876 264.3282 15.06406550316863
STARLINK-1107,44972,53.0112,0.0007747,15.59573254,383.64882377640333,394.13365733231785,1 44972U 20001BL  25277.91667823  .00132877  00000+0  16181-2 0  9990,2 44972  53.0112 211.3818 0007747 111.1367 346.1778 15.59573254  5994
STARLINK-1132,45044,53.054,0.0001627,15.06399175,546.0873318238455,548.3408410673737,1 45044U 20006A   25276.34483135  .00003114  00000+0  22787-3 0  9995,2 45044  53.0540 252.9656 0001627  91.1969 268.9207 15.06399175313021
STARLINK-1131,45047,53.0549,0.0001355,15.06383584,546.3234795238168,548.2002626178773,1 45047U 20006D   25276.38730185  .00000933  00000+0  81586-4 0  9991,2 45047  53.0549 273.3159 0001355 102.3549 257.7591 15.06383584312742
STARLINK-1134,45048,53.0393,0.0010709,15.25034406,483.32630270556547,498.03793949914143,1 45048U 20006E   25277.63450678  .00090308  00000+0  35334-2 0  9990,2 45048  53.0393 249.2948 0010709  51.8913 308.3048 15.25034406313191
STARLINK-1156,45054,53.0544,0.0001482,15.06378334,546.2516154063342,548.3043084010424,1 45054U 20006L   25276.29139976 -.00000312  00000+0 -20291-5 0  9990,2 45054  53.0544 273.2101 0001482  94.8686 265.2473 15.06378334312738
STARLINK-1159,45057,53.0536,0.000137,15.06375668,546.3373500484113,548.2349159868581,1 45057U 20006P   25276.43883854 -.00001580  00000+0 -87290-4 0  9999,2 45057  53.0536 272.5483 0001370  77.7309 282.3834 15.06375668312766
STARLINK-1166,45060,53.0553,0.0001364,15.06396974,546.2762133996657,548.1654510162925,1 45060U 20006S   25277.71047321 -.00001093  00000+0 -54500-4 0  9993,2 45060  53.0553 266.8376 0001364 102.6424 257.4717 15.06396974312952
